OBJECT_NAME,OBJECT_ID,EPOCH,MEAN_MOTION,ECCENTRICITY,INCLINATION,RA_OF_ASC_NODE,ARG_OF_PERICENTER,MEAN_ANOMALY,EPHEMERIS_TYPE,CLASSIFICATION_TYPE,NORAD_CAT_ID,ELEMENT_SET_NO,REV_AT_EPOCH,BSTAR,MEAN_MOTION_DOT,MEAN_MOTION_DDOT
ONEWEB-0277,2021-060AE,2026-06-06T13:26:04.532352,13.16592884,.0001862,87.9096,230.8946,100.4303,259.7038,0,U,48995,999,23816,.28627E-4,.24E-6,0
ONEWEB-0278,2021-060AF,2026-06-06T15:01:48.749952,13.16596418,.000221,87.9103,230.8709,103.2839,256.8538,0,U,48996,999,23830,-.81129E-4,-.18E-6,0
ONEWEB-0279,2021-060AG,2026-06-06T11:34:21.590112,13.16593975,.00017881,87.9102,230.8979,94.5729,265.5606,0,U,48997,999,23821,-.63760137E-4,-.12E-6,0
ONEWEB-0280,2021-060AH,2026-06-06T13:45:25.999776,13.16593577,.0001921,87.9103,230.8838,108.5401,251.5939,0,U,48998,999,23816,.3418E-3,.144E-5,0
ONEWEB-0281,2021-060AJ,2026-06-06T13:53:26.310336,13.16594314,.0002094,87.9103,230.8775,101.0635,259.0732,0,U,48999,999,23823,.68795E-4,.39E-6,0
ONEWEB-0282,2021-060AK,2026-06-06T14:36:43.866720,13.16596973,.0001817,87.9096,230.8802,101.7436,258.3898,0,U,49000,999,23821,-.25041E-3,-.83E-6,0
ONEWEB-0283,2021-060AL,2026-06-06T14:20:47.010912,13.16594148,.0001848,87.9103,230.8820,97.0229,263.1112,0,U,49001,999,23822,.16593E-3,.76E-6,0
ONEWEB-0284,2021-060AM,2026-06-06T14:11:40.437600,13.16594041,.0002108,87.9109,230.8768,107.4167,252.7195,0,U,49002,999,23820,.18204E-3,.82E-6,0
ONEWEB-0285,2021-075A,2026-06-06T18:26:17.225952,13.12442090,.0001731,87.8949,352.7343,89.6253,270.5074,0,U,49075,999,23384,.88173E-3,.33E-5,0
ONEWEB-0286,2021-075B,2026-06-06T14:20:54.261600,13.12444235,.0002051,87.8936,352.7860,88.2233,271.9131,0,U,49076,999,23317,.11112E-2,.413E-5,0
ONEWEB-0287,2021-075C,2026-06-06T20:08:38.256288,13.17647810,.0002246,87.9141,7.9244,89.2186,270.9203,0,U,49077,999,23226,.4054E-4,.29E-6,0
ONEWEB-0288,2021-075D,2026-06-06T19:16:16.968288,13.12443210,.0001973,87.8949,352.7212,92.7927,267.3427,0,U,49078,999,23382,-.75442E-3,-.259E-5,0
ONEWEB-0289,2021-075E,2026-06-06T13:46:56.350848,13.17648593,.0001645,87.9147,7.9937,99.0772,261.0546,0,U,49079,999,23280,.13278E-3,.64E-6,0
ONEWEB-0290,2021-075F,2026-06-06T20:25:39.005760,13.17648602,.000158,87.9149,7.9104,101.3742,258.7567,0,U,49080,999,23225,-.13154E-3,-.38E-6,0
ONEWEB-0291,2021-075G,2026-06-06T20:03:46.842912,13.17647737,.0002085,87.9146,7.9209,96.2696,263.8673,0,U,49081,999,23224,-.44482E-4,-.4E-7,0
ONEWEB-0293,2021-075H,2026-06-06T20:40:12.775872,13.17648213,.0001799,87.9141,7.9200,91.6484,268.4854,0,U,49082,999,23227,-.25616E-3,-.87E-6,0
ONEWEB-0294,2021-075J,2026-06-06T19:26:03.002208,13.12443684,.0001616,87.8950,352.7233,98.7118,261.4194,0,U,49083,999,23321,-.71633E-3,-.245E-5,0
ONEWEB-0295,2021-075K,2026-06-06T20:39:00.225792,13.17647215,.0002108,87.9140,7.9243,92.1184,268.0189,0,U,49084,999,23223,.12126E-3,.6E-6,0
ONEWEB-0296,2021-075L,2026-06-06T18:56:46.017600,13.12442069,.0002053,87.8956,352.7340,96.3738,263.7625,0,U,49085,999,23321,-.87683E-3,-.303E-5,0
ONEWEB-0297,2021-075M,2026-06-06T19:40:41.240064,13.12444579,.0001911,87.8938,352.7405,89.4537,270.6810,0,U,49086,999,23382,.38555E-3,.151E-5,0
ONEWEB-0298,2021-075N,2026-06-06T20:45:18.285408,13.17654518,.0001986,87.9145,7.9212,83.8022,276.3336,0,U,49087,999,23226,.12275E-2,.49E-5,0
ONEWEB-0299,2021-075P,2026-06-06T20:47:31.589376,13.17649315,.0002055,87.9151,7.9003,87.3075,272.8292,0,U,49088,999,23224,.6165E-4,.37E-6,0
ONEWEB-0300,2021-075Q,2026-06-06T19:29:42.239616,13.12445174,.0002015,87.8950,352.7203,78.4227,281.7127,0,U,49089,999,23384,-.41481E-3,-.137E-5,0
ONEWEB-0301,2021-075R,2026-06-06T19:06:31.538304,13.12443678,.0001822,87.8949,352.7215,77.9463,282.1870,0,U,49090,999,23320,-.10975E-2,-.382E-5,0
ONEWEB-0302,2021-075S,2026-06-06T18:47:00.960864,13.12441850,.0001764,87.8953,352.7359,99.2390,260.8939,0,U,49091,999,23318,-.14907E-3,-.41E-6,0
ONEWEB-0304,2021-075T,2026-06-06T20:11:04.033824,13.17648540,.0002024,87.9141,7.9284,88.9832,271.1531,0,U,49092,999,23221,.37542E-4,.27E-6,0
ONEWEB-0305,2021-075U,2026-06-06T14:33:18.316800,13.17648327,.0002205,87.9153,7.9583,90.0620,270.0765,0,U,49093,999,23221,-.10699E-4,.9E-7,0
ONEWEB-0308,2021-075V,2026-06-06T18:37:15.604320,13.12441627,.0001762,87.8954,352.7294,88.6487,271.4844,0,U,49094,999,23319,.32194E-3,.129E-5,0
ONEWEB-0309,2021-075W,2026-06-06T20:06:11.835072,13.17647785,.0001737,87.9144,7.9221,102.0341,258.0985,0,U,49095,999,23221,.75339E-4,.42E-6,0
ONEWEB-0310,2021-075X,2026-06-06T18:59:12.354144,13.12442744,.0001795,87.8942,352.7487,90.0385,270.0949,0,U,49096,999,23382,-.10405E-2,-.362E-5,0
ONEWEB-0311,2021-075Y,2026-06-06T20:15:56.694816,13.17648755,.000226,87.9146,7.9207,85.7085,274.4305,0,U,49097,999,23226,-.15411E-3,-.47E-6,0
