ONEWEB-0277             
1 48995U 21060AE  26157.55977468  .00000024  00000+0  28627-4 0  9990
2 48995  87.9096 230.8946 0001862 100.4303 259.7038 13.16592884238167
ONEWEB-0278             
1 48996U 21060AF  26157.62625868 -.00000018  00000+0 -81129-4 0  9994
2 48996  87.9103 230.8709 0002210 103.2839 256.8538 13.16596418238303
ONEWEB-0279             
1 48997U 21060AG  26157.48219433 -.00000012  00000+0 -63760-4 0  9991
2 48997  87.9102 230.8979 0001788  94.5729 265.5606 13.16593975238219
ONEWEB-0280             
1 48998U 21060AH  26157.57321759  .00000144  00000+0  34180-3 0  9994
2 48998  87.9103 230.8838 0001921 108.5401 251.5939 13.16593577238163
ONEWEB-0281             
1 48999U 21060AJ  26157.57877674  .00000039  00000+0  68795-4 0  9990
2 48999  87.9103 230.8775 0002094 101.0635 259.0732 13.16594314238235
ONEWEB-0282             
1 49000U 21060AK  26157.60884105 -.00000083  00000+0 -25041-3 0  9992
2 49000  87.9096 230.8802 0001817 101.7436 258.3898 13.16596973238215
ONEWEB-0283             
1 49001U 21060AL  26157.59776633  .00000076  00000+0  16593-3 0  9999
2 49001  87.9103 230.8820 0001848  97.0229 263.1112 13.16594148238222
ONEWEB-0284             
1 49002U 21060AM  26157.59144025  .00000082  00000+0  18204-3 0  9992
2 49002  87.9109 230.8768 0002108 107.4167 252.7195 13.16594041238202
ONEWEB-0285             
1 49075U 21075A   26157.76825493  .00000330  00000+0  88173-3 0  9990
2 49075  87.8949 352.7343 0001731  89.6253 270.5074 13.12442090233845
ONEWEB-0286             
1 49076U 21075B   26157.59785025  .00000413  00000+0  11112-2 0  9998
2 49076  87.8936 352.7860 0002051  88.2233 271.9131 13.12444235233173
ONEWEB-0287             
1 49077U 21075C   26157.83933167  .00000029  00000+0  40540-4 0  9990
2 49077  87.9141   7.9244 0002246  89.2186 270.9203 13.17647810232269
ONEWEB-0288             
1 49078U 21075D   26157.80297417 -.00000259  00000+0 -75442-3 0  9994
2 49078  87.8949 352.7212 0001973  92.7927 267.3427 13.12443210233823
ONEWEB-0289             
1 49079U 21075E   26157.57426332  .00000064  00000+0  13278-3 0  9990
2 49079  87.9147   7.9937 0001645  99.0772 261.0546 13.17648593232808
ONEWEB-0290             
1 49080U 21075F   26157.85114590 -.00000038  00000+0 -13154-3 0  9999
2 49080  87.9149   7.9104 0001580 101.3742 258.7567 13.17648602232256
ONEWEB-0291             
1 49081U 21075G   26157.83595883 -.00000004  00000+0 -44482-4 0  9998
2 49081  87.9146   7.9209 0002085  96.2696 263.8673 13.17647737232243
ONEWEB-0293             
1 49082U 21075H   26157.86125898 -.00000087  00000+0 -25616-3 0  9995
2 49082  87.9141   7.9200 0001799  91.6484 268.4854 13.17648213232270
ONEWEB-0294             
1 49083U 21075J   26157.80975697 -.00000245  00000+0 -71633-3 0  9996
2 49083  87.8950 352.7233 0001616  98.7118 261.4194 13.12443684233210
ONEWEB-0295             
1 49084U 21075K   26157.86041928  .00000060  00000+0  12126-3 0  9999
2 49084  87.9140   7.9243 0002108  92.1184 268.0189 13.17647215232230
ONEWEB-0296             
1 49085U 21075L   26157.78942150 -.00000303  00000+0 -87683-3 0  9990
2 49085  87.8956 352.7340 0002053  96.3738 263.7625 13.12442069233215
ONEWEB-0297             
1 49086U 21075M   26157.81992176  .00000151  00000+0  38555-3 0  9991
2 49086  87.8938 352.7405 0001911  89.4537 270.6810 13.12444579233828
ONEWEB-0298             
1 49087U 21075N   26157.86479497  .00000490  00000+0  12275-2 0  9999
2 49087  87.9145   7.9212 0001986  83.8022 276.3336 13.17654518232268
ONEWEB-0299             
1 49088U 21075P   26157.86633784  .00000037  00000+0  61650-4 0  9991
2 49088  87.9151   7.9003 0002055  87.3075 272.8292 13.17649315232248
ONEWEB-0300             
1 49089U 21075Q   26157.81229444 -.00000137  00000+0 -41481-3 0  9993
2 49089  87.8950 352.7203 0002015  78.4227 281.7127 13.12445174233849
ONEWEB-0301             
1 49090U 21075R   26157.79619836 -.00000382  00000+0 -10975-2 0  9995
2 49090  87.8949 352.7215 0001822  77.9463 282.1870 13.12443678233200
ONEWEB-0302             
1 49091U 21075S   26157.78265001 -.00000041  00000+0 -14907-3 0  9998
2 49091  87.8953 352.7359 0001764  99.2390 260.8939 13.12441850233182
ONEWEB-0304             
1 49092U 21075T   26157.84101891  .00000027  00000+0  37542-4 0  9995
2 49092  87.9141   7.9284 0002024  88.9832 271.1531 13.17648540232211
ONEWEB-0305             
1 49093U 21075U   26157.60646200  .00000009  00000+0 -10699-4 0  9993
2 49093  87.9153   7.9583 0002205  90.0620 270.0765 13.17648327232217
ONEWEB-0308             
1 49094U 21075V   26157.77587505  .00000129  00000+0  32194-3 0  9999
2 49094  87.8954 352.7294 0001762  88.6487 271.4844 13.12441627233197
ONEWEB-0309             
1 49095U 21075W   26157.83763698  .00000042  00000+0  75339-4 0  9999
2 49095  87.9144   7.9221 0001737 102.0341 258.0985 13.17647785232218
ONEWEB-0310             
1 49096U 21075X   26157.79111521 -.00000362  00000+0 -10405-2 0  9995
2 49096  87.8942 352.7487 0001795  90.0385 270.0949 13.12442744233822
ONEWEB-0311             
1 49097U 21075Y   26157.84440619 -.00000047  00000+0 -15411-3 0  9998
2 49097  87.9146   7.9207 0002260  85.7085 274.4305 13.17648755232261
